{
  "type": "FeatureCollection",
  "features": [
    {
      "type": "Feature",
      "properties": {
        "norad_id": 34752,
        "name": "COSMOS 2251 DEB",
        "group": "cosmos-2251-debris",
        "lat": -24.97923400144479,
        "lon": -177.30656486954513,
        "alt_km": 568.0716456052214,
        "timestamp": "2025-12-15T11:38:37.547106+00:00",
        "meta_object_name": "COSMOS 2251 DEB",
        "meta_object_id": "1993-036ZW",
        "meta_epoch": "2025-12-14T10:43:21.705600",
        "meta_mean_motion": 14.99982299,
        "meta_eccentricity": 0.00476357,
        "meta_inclination": 74.0136,
        "meta_ra_of_asc_node": 357.1306,
        "meta_arg_of_pericenter": 125.1365,
        "meta_mean_anomaly": 235.43,
        "meta_ephemeris_type": 0,
        "meta_classification_type": "U",
        "meta_norad_cat_id": 34752,
        "meta_element_set_no": 999,
        "meta_rev_at_epoch": 89875,
        "meta_bstar": 0.0010507924,
        "meta_mean_motion_dot": 0.00013365,
        "meta_mean_motion_ddot": 0,
        "tle_line1": "1 34752U 93036ZW  25348.44677900  .00013365  00000+0  10508-2 0  9994",
        "tle_line2": "2 34752  74.0136 357.1306 0047635 125.1365 235.4300 14.99982299898753"
      },
      "geometry": {
        "type": "Point",
        "coordinates": [
          -177.30656486954513,
          -24.97923400144479
        ]
      }
    },
    {
      "type": "Feature",
      "properties": {
        "norad_id": 34754,
        "name": "COSMOS 2251 DEB",
        "group": "cosmos-2251-debris",
        "lat": -45.953867444846765,
        "lon": -154.69651939996933,
        "alt_km": 744.3333042040367,
        "timestamp": "2025-12-15T11:38:37.547116+00:00",
        "meta_object_name": "COSMOS 2251 DEB",
        "meta_object_id": "1993-036ZY",
        "meta_epoch": "2025-12-14T19:45:22.230144",
        "meta_mean_motion": 14.40484839,
        "meta_eccentricity": 0.00296461,
        "meta_inclination": 74.03,
        "meta_ra_of_asc_node": 223.7488,
        "meta_arg_of_pericenter": 339.4686,
        "meta_mean_anomaly": 140.8856,
        "meta_ephemeris_type": 0,
        "meta_classification_type": "U",
        "meta_norad_cat_id": 34754,
        "meta_element_set_no": 999,
        "meta_rev_at_epoch": 88163,
        "meta_bstar": 0.00024020085,
        "meta_mean_motion_dot": 7.41e-06,
        "meta_mean_motion_ddot": 0,
        "tle_line1": "1 34754U 93036ZY  25348.82317396  .00000741  00000+0  24020-3 0  9997",
        "tle_line2": "2 34754  74.0300 223.7488 0029646 339.4686 140.8856 14.40484839881632"
      },
      "geometry": {
        "type": "Point",
        "coordinates": [
          -154.69651939996933,
          -45.953867444846765
        ]
      }
    },
    {
      "type": "Feature",
      "properties": {
        "norad_id": 34755,
        "name": "COSMOS 2251 DEB",
        "group": "cosmos-2251-debris",
        "lat": -63.355518795457236,
        "lon": 140.68695622172322,
        "alt_km": 900.8019327148031,
        "timestamp": "2025-12-15T11:38:37.547127+00:00",
        "meta_object_name": "COSMOS 2251 DEB",
        "meta_object_id": "1993-036ZZ",
        "meta_epoch": "2025-12-14T20:18:02.385216",
        "meta_mean_motion": 13.50565417,
        "meta_eccentricity": 0.04082447,
        "meta_inclination": 73.9259,
        "meta_ra_of_asc_node": 286.6394,
        "meta_arg_of_pericenter": 306.0897,
        "meta_mean_anomaly": 79.0347,
        "meta_ephemeris_type": 0,
        "meta_classification_type": "U",
        "meta_norad_cat_id": 34755,
        "meta_element_set_no": 999,
        "meta_rev_at_epoch": 82552,
        "meta_bstar": 0.0012616054,
        "meta_mean_motion_dot": 1.337e-05,
        "meta_mean_motion_ddot": 0,
        "tle_line1": "1 34755U 93036ZZ  25348.84586094  .00001337  00000+0  12616-2 0  9992",
        "tle_line2": "2 34755  73.9259 286.6394 0408244 306.0897  79.0347 13.50565417825523"
      },
      "geometry": {
        "type": "Point",
        "coordinates": [
          140.68695622172322,
          -63.355518795457236
        ]
      }
    },
    {
      "type": "Feature",
      "properties": {
        "norad_id": 34756,
        "name": "COSMOS 2251 DEB",
        "group": "cosmos-2251-debris",
        "lat": -36.23975101816933,
        "lon": 87.7180916086933,
        "alt_km": 766.4072774042625,
        "timestamp": "2025-12-15T11:38:37.547137+00:00",
        "meta_object_name": "COSMOS 2251 DEB",
        "meta_object_id": "1993-036AAA",
        "meta_epoch": "2025-12-14T07:43:16.554432",
        "meta_mean_motion": 13.67247227,
        "meta_eccentricity": 0.03451481,
        "meta_inclination": 74.003,
        "meta_ra_of_asc_node": 101.7681,
        "meta_arg_of_pericenter": 337.239,
        "meta_mean_anomaly": 21.3726,
        "meta_ephemeris_type": 0,
        "meta_classification_type": "U",
        "meta_norad_cat_id": 34756,
        "meta_element_set_no": 999,
        "meta_rev_at_epoch": 83443,
        "meta_bstar": 0.0011801909,
        "meta_mean_motion_dot": 1.473e-05,
        "meta_mean_motion_ddot": 0,
        "tle_line1": "1 34756U 93036AAA 25348.32171938  .00001473  00000+0  11802-2 0  9990",
        "tle_line2": "2 34756  74.0030 101.7681 0345148 337.2390  21.3726 13.67247227834431"
      },
      "geometry": {
        "type": "Point",
        "coordinates": [
          87.7180916086933,
          -36.23975101816933
        ]
      }
    },
    {
      "type": "Feature",
      "properties": {
        "norad_id": 34758,
        "name": "COSMOS 2251 DEB",
        "group": "cosmos-2251-debris",
        "lat": -18.656585585229273,
        "lon": -70.44066316993072,
        "alt_km": 975.6751384000627,
        "timestamp": "2025-12-15T11:38:37.547147+00:00",
        "meta_object_name": "COSMOS 2251 DEB",
        "meta_object_id": "1993-036AAC",
        "meta_epoch": "2025-12-14T14:31:19.899552",
        "meta_mean_motion": 13.5807592,
        "meta_eccentricity": 0.03814046,
        "meta_inclination": 74.1076,
        "meta_ra_of_asc_node": 296.4949,
        "meta_arg_of_pericenter": 59.7689,
        "meta_mean_anomaly": 304.0608,
        "meta_ephemeris_type": 0,
        "meta_classification_type": "U",
        "meta_norad_cat_id": 34758,
        "meta_element_set_no": 999,
        "meta_rev_at_epoch": 82935,
        "meta_bstar": 0.0016031899,
        "meta_mean_motion_dot": 1.847e-05,
        "meta_mean_motion_ddot": 0,
        "tle_line1": "1 34758U 93036AAC 25348.60509143  .00001847  00000+0  16032-2 0  9991",
        "tle_line2": "2 34758  74.1076 296.4949 0381404  59.7689 304.0608 13.58075920829359"
      },
      "geometry": {
        "type": "Point",
        "coordinates": [
          -70.44066316993072,
          -18.656585585229273
        ]
      }
    },
    {
      "type": "Feature",
      "properties": {
        "norad_id": 34760,
        "name": "COSMOS 2251 DEB",
        "group": "cosmos-2251-debris",
        "lat": 53.44352968853558,
        "lon": 94.79573583925779,
        "alt_km": 869.8230538551907,
        "timestamp": "2025-12-15T11:38:37.547157+00:00",
        "meta_object_name": "COSMOS 2251 DEB",
        "meta_object_id": "1993-036AAE",
        "meta_epoch": "2025-12-14T15:36:34.134912",
        "meta_mean_motion": 14.19576893,
        "meta_eccentricity": 0.00968859,
        "meta_inclination": 74.0637,
        "meta_ra_of_asc_node": 298.9496,
        "meta_arg_of_pericenter": 350.6486,
        "meta_mean_anomaly": 187.4946,
        "meta_ephemeris_type": 0,
        "meta_classification_type": "U",
        "meta_norad_cat_id": 34760,
        "meta_element_set_no": 999,
        "meta_rev_at_epoch": 86715,
        "meta_bstar": 0.00083829152,
        "meta_mean_motion_dot": 1.829e-05,
        "meta_mean_motion_ddot": 0,
        "tle_line1": "1 34760U 93036AAE 25348.65039508  .00001829  00000+0  83829-3 0  9991",
        "tle_line2": "2 34760  74.0637 298.9496 0096885 350.6486 187.4946 14.19576893867153"
      },
      "geometry": {
        "type": "Point",
        "coordinates": [
          94.79573583925779,
          53.44352968853558
        ]
      }
    },
    {
      "type": "Feature",
      "properties": {
        "norad_id": 34761,
        "name": "COSMOS 2251 DEB",
        "group": "cosmos-2251-debris",
        "lat": -42.77958554008495,
        "lon": -166.90055231372097,
        "alt_km": 796.5088068088698,
        "timestamp": "2025-12-15T11:38:37.547167+00:00",
        "meta_object_name": "COSMOS 2251 DEB",
        "meta_object_id": "1993-036AAF",
        "meta_epoch": "2025-12-14T17:54:22.077504",
        "meta_mean_motion": 14.38057425,
        "meta_eccentricity": 0.00365037,
        "meta_inclination": 74.0295,
        "meta_ra_of_asc_node": 359.0941,
        "meta_arg_of_pericenter": 32.5875,
        "meta_mean_anomaly": 327.7521,
        "meta_ephemeris_type": 0,
        "meta_classification_type": "U",
        "meta_norad_cat_id": 34761,
        "meta_element_set_no": 999,
        "meta_rev_at_epoch": 87678,
        "meta_bstar": 0.00063250897,
        "meta_mean_motion_dot": 1.904e-05,
        "meta_mean_motion_ddot": 0,
        "tle_line1": "1 34761U 93036AAF 25348.74608886  .00001904  00000+0  63251-3 0  9994",
        "tle_line2": "2 34761  74.0295 359.0941 0036503  32.5875 327.7521 14.38057425876780"
      },
      "geometry": {
        "type": "Point",
        "coordinates": [
          -166.90055231372097,
          -42.77958554008495
        ]
      }
    }
  ]
}